ONEWEB-0545             
1 54647U 22166F   25195.58435798  .00000106  00000+0  22595-3 0  9996
2 54647  87.9272 311.3337 0002107 114.9792 245.1561 13.21826328127377
ONEWEB-0580             
1 54648U 22166G   25195.55753146  .00000103  00000+0  21907-3 0  9997
2 54648  87.9279 311.3367 0001822 110.8344 249.2985 13.21824967127405
ONEWEB-0582             
1 54649U 22166H   25195.07023350  .00000027  00000+0  34028-4 0  9996
2 54649  87.9264 311.4330 0001806 115.8106 244.3215 13.21824220127329
ONEWEB-0583             
1 54650U 22166J   25194.77849289 -.00000024  00000+0 -90169-4 0  9998
2 54650  87.9280 311.5111 0002008 103.8108 256.3249 13.21824625126824
ONEWEB-0584             
1 54651U 22166K   25194.57190941  .00000083  00000+0  16841-3 0  9998
2 54651  87.9275 311.5362 0001705 110.8119 249.3198 13.21825712127251
ONEWEB-0585             
1 54652U 22166L   25194.59713753  .00000073  00000+0  14413-3 0  9995
2 54652  87.9272 311.5177 0001962  96.8853 263.2505 13.21824999127260
ONEWEB-0586             
1 54653U 22166M   25195.06393426 -.00000026  00000+0 -93672-4 0  9995
2 54653  87.9277 311.4477 0001960 105.8045 254.3305 13.21823921127320
ONEWEB-0587             
1 54654U 22166N   25195.22479740  .00000039  00000+0  63082-4 0  9992
2 54654  87.9278 311.3642 0002001  93.6353 266.5010 13.21826429127490
